COSMOS 2425 (716)       
1 29670U 06062A   18069.70658479  .00000015  00000-0  10000-3 0  9998
2 29670  65.3271 295.8660 0022636 349.6263 130.6222  2.13104848 87213
COSMOS 2426 (717)       
1 29671U 06062B   18069.53850008  .00000013  00000-0  10000-3 0  9990
2 29671  65.3458 295.9675 0016405 159.7109  48.0505  2.13102988 87213
COSMOS 2433 (720)       
1 32275U 07052A   18070.08395799  .00000004  00000-0  10000-3 0  9997
2 32275  65.6436  56.6535 0005283 279.1988 322.2181  2.13104620 80739
COSMOS 2432 (719)       
1 32276U 07052B   18069.67944414  .00000003  00000-0  10000-3 0  9994
2 32276  65.6548  56.7434 0013442 326.3776 276.8786  2.13103925 80720
COSMOS 2434 (721)       
1 32393U 07065A   18070.35292140  .00000023  00000-0  00000+0 0  9994
2 32393  64.9426 294.8658 0004814  87.9478 248.1549  2.13102826 79447
COSMOS 2436 (723)       
1 32395U 07065C   18070.28534683  .00000022  00000-0  10000-3 0  9993
2 32395  64.9508 294.9187 0016791   4.3581 329.9133  2.13104169 79374
COSMOS 2456 (730)       
1 36111U 09070A   18069.86043816 -.00000028  00000-0  00000+0 0  9998
2 36111  64.1842 174.4618 0003830 325.1364 165.1409  2.13102749 64104
COSMOS 2457 (733)       
1 36112U 09070B   18070.33816100 -.00000029  00000-0  00000+0 0  9998
2 36112  64.1652 174.3581 0006225 160.4252 103.7035  2.13101471 64114
COSMOS 2458 (734)       
1 36113U 09070C   18069.50651516 -.00000027  00000-0  10000-3 0  9997
2 36113  64.1708 174.3964 0001932  30.4693   3.9333  2.13102079 64103
COSMOS 2459 (731)       
1 36400U 10007A   18069.76939079  .00000002  00000-0  10000-3 0  9991
2 36400  65.5525  55.7373 0028596 347.0847 232.7358  2.13102171 62451
COSMOS 2461 (735)       
1 36401U 10007B   18070.12494869  .00000003  00000-0  10000-3 0  9998
2 36401  65.5453  55.7010 0005338  41.8397   1.3397  2.13102146 62464
COSMOS 2460 (732)       
1 36402U 10007C   18069.76521602  .00000002  00000-0  10000-3 0  9992
2 36402  65.5347  55.6823 0002837 300.2400 227.8071  2.13101647 62454
COSMOS 2464 (736)       
1 37139U 10041C   18069.39143260  .00000013  00000-0  00000-0 0  9995
2 37139  64.5468 294.7522 0025435  14.1396 172.1226  2.13102657 58519
COSMOS 2471 (701K)      
1 37372U 11009A   18069.67944414  .00000001  00000-0  00000+0 0  9996
2 37372  65.5336  55.6310 0009405 244.4927 359.6144  2.13107616 54729
COSMOS 2474 (742)       
1 37829U 11055A   18070.21030904 -.00000028  00000-0  00000+0 0  9996
2 37829  64.5079 175.1259 0007744 245.5073  11.7731  2.13101810 50103
COSMOS 2476 (744)       
1 37867U 11064A   18069.93333277 -.00000028  00000-0  00000+0 0  9994
2 37867  64.4876 175.1998 0017666 241.5591 209.2453  2.13101945 49454
COSMOS 2477 (745)       
1 37868U 11064B   18069.93298663 -.00000028  00000-0  00000+0 0  9994
2 37868  64.4955 175.2468 0015051 241.8051  27.7065  2.13101677 49405
COSMOS 2475 (743)       
1 37869U 11064C   18069.60826675 -.00000026  00000-0  00000-0 0  9998
2 37869  64.5026 175.2524 0019934 269.0871  67.9416  2.13101841 49404
COSMOS 2485 (747)       
1 39155U 13019A   18070.41737338 -.00000029  00000-0  00000+0 0  9990
2 39155  64.6571 175.2706 0017787 235.3947 271.6773  2.13101858 37939
COSMOS 2492 (754)       
1 39620U 14012A   18069.54546366  .00000000  00000-0  10000-3 0  9995
2 39620  65.4237  55.5890 0016936 324.4865 268.3180  2.13103385 30869
COSMOS 2500 (755)       
1 40001U 14032A   18069.74469153  .00000001  00000-0  00000+0 0  9998
2 40001  65.3642  55.5591 0006626 232.1900  15.9192  2.13102740 29086
COSMOS 2501 (702K)      
1 40315U 14075A   18069.61399344  .00000012  00000-0  00000-0 0  9996
2 40315  64.2728 295.9936 0014061 207.5147 103.0849  2.13098435 25484
COSMOS 2514 (751)       
1 41330U 16008A   18070.00868785  .00000001  00000-0  00000+0 0  9994
2 41330  65.1673  55.6281 0010189 232.5781  38.7336  2.13103260 16257
COSMOS 2516 (753)       
1 41554U 16032A   18069.54309615  .00000012  00000-0  00000+0 0  9990
2 41554  64.4936 295.8331 0010014 220.7648 304.7924  2.13101567 13851
COSMOS 2522 (752)       
1 42939U 17055A   18069.64880279  .00000013  00000-0  00000+0 0  9996
2 42939  64.7219 295.7678 0005778 259.3370 213.7283  2.13101886  3614
